LYNK TOWER 3            
1 55046U 23001AP  26068.68752747  .00013886  00000+0  42324-3 0  9997
2 55046  97.3321 129.5399 0009859 112.8813 247.3472 15.34026505176644
STARLINK-35140          
1 65501U 25198K   26068.82615536  .00020541  00000+0  70378-3 0  9999
2 65501  53.1588 270.1745 0000948  84.2458 275.8650 15.30197411 28642
